{
  "type": "FeatureCollection",
  "features": [
    {
      "type": "Feature",
      "properties": {
        "norad_id": 44231,
        "name": "BEIDOU-2 G8 (C01)",
        "group": "gnss",
        "lat": 0.6151850514402395,
        "lon": 95.16120176111713,
        "alt_km": 35803.128602246325,
        "timestamp": "2025-12-21T14:40:48.160214+00:00",
        "meta_object_name": "BEIDOU-2 G8 (C01)",
        "meta_object_id": "2019-027A",
        "meta_epoch": "2025-12-19T12:14:23.449632",
        "meta_mean_motion": 1.00276563,
        "meta_eccentricity": 0.0008196,
        "meta_inclination": 1.6785,
        "meta_ra_of_asc_node": 74.7229,
        "meta_arg_of_pericenter": 258.5641,
        "meta_mean_anomaly": 83.1013,
        "meta_ephemeris_type": 0,
        "meta_classification_type": "U",
        "meta_norad_cat_id": 44231,
        "meta_element_set_no": 999,
        "meta_rev_at_epoch": 2427,
        "meta_bstar": 0,
        "meta_mean_motion_dot": -2.24e-06,
        "meta_mean_motion_ddot": 0,
        "tle_line1": "1 44231U 19027A   25353.50999363 -.00000224  00000+0  00000+0 0  9992",
        "tle_line2": "2 44231   1.6785  74.7229 0008196 258.5641  83.1013  1.00276563 24270"
      },
      "geometry": {
        "type": "Point",
        "coordinates": [
          95.16120176111713,
          0.6151850514402395
        ]
      }
    },
    {
      "type": "Feature",
      "properties": {
        "norad_id": 44299,
        "name": "COSMOS 2534 (758)",
        "group": "gnss",
        "lat": -9.946090178857233,
        "lon": -166.23370284724874,
        "alt_km": 19122.153859082468,
        "timestamp": "2025-12-21T14:40:48.160226+00:00",
        "meta_object_name": "COSMOS 2534 (758)",
        "meta_object_id": "2019-030A",
        "meta_epoch": "2025-12-18T18:30:09.690336",
        "meta_mean_motion": 2.13102412,
        "meta_eccentricity": 0.0008748,
        "meta_inclination": 64.3658,
        "meta_ra_of_asc_node": 198.6898,
        "meta_arg_of_pericenter": 284.2192,
        "meta_mean_anomaly": 45.4012,
        "meta_ephemeris_type": 0,
        "meta_classification_type": "U",
        "meta_norad_cat_id": 44299,
        "meta_element_set_no": 999,
        "meta_rev_at_epoch": 5107,
        "meta_bstar": 0,
        "meta_mean_motion_dot": 1.08e-06,
        "meta_mean_motion_ddot": 0,
        "tle_line1": "1 44299U 19030A   25352.77094549  .00000108  00000+0  00000+0 0  9990",
        "tle_line2": "2 44299  64.3658 198.6898 0008748 284.2192  45.4012  2.13102412 51071"
      },
      "geometry": {
        "type": "Point",
        "coordinates": [
          -166.23370284724874,
          -9.946090178857233
        ]
      }
    },
    {
      "type": "Feature",
      "properties": {
        "norad_id": 44337,
        "name": "BEIDOU-3 IGSO-2 (C39)",
        "group": "gnss",
        "lat": -55.17496695625419,
        "lon": 70.51423940958755,
        "alt_km": 35733.41510416757,
        "timestamp": "2025-12-21T14:40:48.160237+00:00",
        "meta_object_name": "BEIDOU-3 IGSO-2 (C39)",
        "meta_object_id": "2019-035A",
        "meta_epoch": "2025-12-20T20:45:51.571008",
        "meta_mean_motion": 1.00268938,
        "meta_eccentricity": 0.00375986,
        "meta_inclination": 55.2283,
        "meta_ra_of_asc_node": 160.43,
        "meta_arg_of_pericenter": 202.2266,
        "meta_mean_anomaly": 157.9019,
        "meta_ephemeris_type": 0,
        "meta_classification_type": "U",
        "meta_norad_cat_id": 44337,
        "meta_element_set_no": 999,
        "meta_rev_at_epoch": 2388,
        "meta_bstar": 0,
        "meta_mean_motion_dot": -6.9e-07,
        "meta_mean_motion_ddot": 0,
        "tle_line1": "1 44337U 19035A   25354.86518022 -.00000069  00000+0  00000+0 0  9994",
        "tle_line2": "2 44337  55.2283 160.4300 0037598 202.2266 157.9019  1.00268938 23884"
      },
      "geometry": {
        "type": "Point",
        "coordinates": [
          70.51423940958755,
          -55.17496695625419
        ]
      }
    },
    {
      "type": "Feature",
      "properties": {
        "norad_id": 44506,
        "name": "GPS BIII-2  (PRN 18)",
        "group": "gnss",
        "lat": -26.78089195043698,
        "lon": -41.94721900010258,
        "alt_km": 20279.950771925407,
        "timestamp": "2025-12-21T14:40:48.160250+00:00",
        "meta_object_name": "GPS BIII-2  (PRN 18)",
        "meta_object_id": "2019-056A",
        "meta_epoch": "2025-12-21T05:42:14.084928",
        "meta_mean_motion": 2.00566637,
        "meta_eccentricity": 0.0057741,
        "meta_inclination": 55.7184,
        "meta_ra_of_asc_node": 338.2157,
        "meta_arg_of_pericenter": 198.5572,
        "meta_mean_anomaly": 217.8196,
        "meta_ephemeris_type": 0,
        "meta_classification_type": "U",
        "meta_norad_cat_id": 44506,
        "meta_element_set_no": 999,
        "meta_rev_at_epoch": 4650,
        "meta_bstar": 0,
        "meta_mean_motion_dot": -7.3e-07,
        "meta_mean_motion_ddot": 0,
        "tle_line1": "1 44506U 19056A   25355.23766302 -.00000073  00000+0  00000+0 0  9998",
        "tle_line2": "2 44506  55.7184 338.2157 0057741 198.5572 217.8196  2.00566637 46505"
      },
      "geometry": {
        "type": "Point",
        "coordinates": [
          -41.94721900010258,
          -26.78089195043698
        ]
      }
    },
    {
      "type": "Feature",
      "properties": {
        "norad_id": 44542,
        "name": "BEIDOU-3 M24 (C46)",
        "group": "gnss",
        "lat": 48.94556386123779,
        "lon": -115.88677158335072,
        "alt_km": 21502.57228856235,
        "timestamp": "2025-12-21T14:40:48.160261+00:00",
        "meta_object_name": "BEIDOU-3 M24 (C46)",
        "meta_object_id": "2019-061A",
        "meta_epoch": "2025-12-20T23:21:37.865088",
        "meta_mean_motion": 1.86229471,
        "meta_eccentricity": 0.00095916,
        "meta_inclination": 54.4004,
        "meta_ra_of_asc_node": 188.7381,
        "meta_arg_of_pericenter": 25.7188,
        "meta_mean_anomaly": 334.3822,
        "meta_ephemeris_type": 0,
        "meta_classification_type": "U",
        "meta_norad_cat_id": 44542,
        "meta_element_set_no": 999,
        "meta_rev_at_epoch": 4247,
        "meta_bstar": 0,
        "meta_mean_motion_dot": 9.6e-07,
        "meta_mean_motion_ddot": 0,
        "tle_line1": "1 44542U 19061A   25354.97335492  .00000096  00000+0  00000+0 0  9990",
        "tle_line2": "2 44542  54.4004 188.7381 0009591  25.7188 334.3822  1.86229471 42471"
      },
      "geometry": {
        "type": "Point",
        "coordinates": [
          -115.88677158335072,
          48.94556386123779
        ]
      }
    },
    {
      "type": "Feature",
      "properties": {
        "norad_id": 44543,
        "name": "BEIDOU-3 M23 (C45)",
        "group": "gnss",
        "lat": -15.608566410386643,
        "lon": 177.1374234573816,
        "alt_km": 21518.54652126567,
        "timestamp": "2025-12-21T14:40:48.160272+00:00",
        "meta_object_name": "BEIDOU-3 M23 (C45)",
        "meta_object_id": "2019-061B",
        "meta_epoch": "2025-12-20T19:59:50.640000",
        "meta_mean_motion": 1.86227682,
        "meta_eccentricity": 0.00060744,
        "meta_inclination": 54.3995,
        "meta_ra_of_asc_node": 188.7112,
        "meta_arg_of_pericenter": 25.3362,
        "meta_mean_anomaly": 153.5268,
        "meta_ephemeris_type": 0,
        "meta_classification_type": "U",
        "meta_norad_cat_id": 44543,
        "meta_element_set_no": 999,
        "meta_rev_at_epoch": 4247,
        "meta_bstar": 0,
        "meta_mean_motion_dot": 9.6e-07,
        "meta_mean_motion_ddot": 0,
        "tle_line1": "1 44543U 19061B   25354.83322500  .00000096  00000+0  00000+0 0  9992",
        "tle_line2": "2 44543  54.3995 188.7112 0006074  25.3362 153.5268  1.86227682 42472"
      },
      "geometry": {
        "type": "Point",
        "coordinates": [
          177.1374234573816,
          -15.608566410386643
        ]
      }
    },
    {
      "type": "Feature",
      "properties": {
        "norad_id": 44624,
        "name": "EUTELSAT 5 WEST B (EGNOS/PRN 121)",
        "group": "gnss",
        "lat": -0.053442445999475015,
        "lon": -54.35458006823392,
        "alt_km": 35775.8449811038,
        "timestamp": "2025-12-21T14:40:48.160284+00:00",
        "meta_object_name": "EUTELSAT 5 WEST B (EGNOS/PRN 121)",
        "meta_object_id": "2019-067A",
        "meta_epoch": "2025-12-21T03:40:38.749728",
        "meta_mean_motion": 1.00271336,
        "meta_eccentricity": 0.00030096,
        "meta_inclination": 0.0667,
        "meta_ra_of_asc_node": 336.125,
        "meta_arg_of_pericenter": 293.8202,
        "meta_mean_anomaly": 230.1981,
        "meta_ephemeris_type": 0,
        "meta_classification_type": "U",
        "meta_norad_cat_id": 44624,
        "meta_element_set_no": 999,
        "meta_rev_at_epoch": 2265,
        "meta_bstar": 0,
        "meta_mean_motion_dot": -1.9e-07,
        "meta_mean_motion_ddot": 0,
        "tle_line1": "1 44624U 19067A   25355.15322627 -.00000019  00000+0  00000+0 0  9990",
        "tle_line2": "2 44624   0.0667 336.1250 0003009 293.8202 230.1981  1.00271336 22651"
      },
      "geometry": {
        "type": "Point",
        "coordinates": [
          -54.35458006823392,
          -0.053442445999475015
        ]
      }
    }
  ]
}